{"type": "FeatureCollection", "features": [{"type": "Feature", "properties": {"norad_id": 25590, "name": "COSMOS 2361", "group": "musson", "lat": 77.14577154078451, "lon": 11.122951182336196, "alt_km": 1002.0877807845382, "timestamp": "2025-12-20T16:47:36.556390+00:00", "meta": {"OBJECT_NAME": "COSMOS 2361", "OBJECT_ID": "1998-076A", "EPOCH": "2025-12-20T09:56:59.198784", "MEAN_MOTION": 13.73218386, "ECCENTRICITY": 0.0030167, "INCLINATION": 82.9341, "RA_OF_ASC_NODE": 338.4096, "ARG_OF_PERICENTER": 243.3487, "MEAN_ANOMALY": 227.1143, "EPHEMERIS_TYPE": 0, "CLASSIFICATION_TYPE": "U", "NORAD_CAT_ID": 25590, "ELEMENT_SET_NO": 999, "REV_AT_EPOCH": 35216, "BSTAR": 4.0233e-05, "MEAN_MOTION_DOT": 5.2e-07, "MEAN_MOTION_DDOT": 0}, "tle": {"line1": "1 25590U 98076A   25354.41457406  .00000052  00000+0  40233-4 0  9993", "line2": "2 25590  82.9341 338.4096 0030167 243.3487 227.1143 13.73218386352160"}}, "geometry": {"type": "Point", "coordinates": [11.122951182336196, 77.14577154078451]}}, {"type": "Feature", "properties": {"norad_id": 26818, "name": "COSMOS 2378", "group": "musson", "lat": 1.4581150989257206, "lon": 173.64115188570273, "alt_km": 963.2860202150296, "timestamp": "2025-12-20T16:47:36.556411+00:00", "meta": {"OBJECT_NAME": "COSMOS 2378", "OBJECT_ID": "2001-023A", "EPOCH": "2025-12-20T11:28:50.384352", "MEAN_MOTION": 13.74142628, "ECCENTRICITY": 0.0032884, "INCLINATION": 82.927, "RA_OF_ASC_NODE": 353.9863, "ARG_OF_PERICENTER": 183.1267, "MEAN_ANOMALY": 340.8449, "EPHEMERIS_TYPE": 0, "CLASSIFICATION_TYPE": "U", "NORAD_CAT_ID": 26818, "ELEMENT_SET_NO": 999, "REV_AT_EPOCH": 23029, "BSTAR": 3.1431e-05, "MEAN_MOTION_DOT": 4.5e-07, "MEAN_MOTION_DDOT": 0}, "tle": {"line1": "1 26818U 01023A   25354.47836093  .00000045  00000+0  31431-4 0  9994", "line2": "2 26818  82.9270 353.9863 0032884 183.1267 340.8449 13.74142628230291"}}, "geometry": {"type": "Point", "coordinates": [173.64115188570273, 1.4581150989257206]}}, {"type": "Feature", "properties": {"norad_id": 27436, "name": "COSMOS 2389", "group": "musson", "lat": 53.812893472410444, "lon": -49.170291903062996, "alt_km": 942.436548600579, "timestamp": "2025-12-20T16:47:36.556425+00:00", "meta": {"OBJECT_NAME": "COSMOS 2389", "OBJECT_ID": "2002-026A", "EPOCH": "2025-12-20T10:07:13.988352", "MEAN_MOTION": 13.75155422, "ECCENTRICITY": 0.0047338, "INCLINATION": 82.9509, "RA_OF_ASC_NODE": 301.2979, "ARG_OF_PERICENTER": 39.8218, "MEAN_ANOMALY": 78.8383, "EPHEMERIS_TYPE": 0, "CLASSIFICATION_TYPE": "U", "NORAD_CAT_ID": 27436, "ELEMENT_SET_NO": 999, "REV_AT_EPOCH": 18254, "BSTAR": 3.1542e-05, "MEAN_MOTION_DOT": 4.6e-07, "MEAN_MOTION_DDOT": 0}, "tle": {"line1": "1 27436U 02026A   25354.42168968  .00000046  00000+0  31542-4 0  9993", "line2": "2 27436  82.9509 301.2979 0047338  39.8218  78.8383 13.75155422182546"}}, "geometry": {"type": "Point", "coordinates": [-49.170291903062996, 53.812893472410444]}}, {"type": "Feature", "properties": {"norad_id": 27818, "name": "COSMOS 2398", "group": "musson", "lat": -71.06858992996024, "lon": -114.32090215793136, "alt_km": 1021.3636971417382, "timestamp": "2025-12-20T16:47:36.556437+00:00", "meta": {"OBJECT_NAME": "COSMOS 2398", "OBJECT_ID": "2003-023A", "EPOCH": "2025-12-20T07:12:44.411328", "MEAN_MOTION": 13.72386499, "ECCENTRICITY": 0.0032722, "INCLINATION": 82.9484, "RA_OF_ASC_NODE": 267.1268, "ARG_OF_PERICENTER": 91.6346, "MEAN_ANOMALY": 24.8791, "EPHEMERIS_TYPE": 0, "CLASSIFICATION_TYPE": "U", "NORAD_CAT_ID": 27818, "ELEMENT_SET_NO": 999, "REV_AT_EPOCH": 12920, "BSTAR": 5.6612e-05, "MEAN_MOTION_DOT": 6.7e-07, "MEAN_MOTION_DDOT": 0}, "tle": {"line1": "1 27818U 03023A   25354.30051402  .00000067  00000+0  56612-4 0  9994", "line2": "2 27818  82.9484 267.1268 0032722  91.6346  24.8791 13.72386499129207"}}, "geometry": {"type": "Point", "coordinates": [-114.32090215793136, -71.06858992996024]}}, {"type": "Feature", "properties": {"norad_id": 28380, "name": "COSMOS 2407", "group": "musson", "lat": -55.1584430767577, "lon": 37.22460550159865, "alt_km": 1011.1578313474965, "timestamp": "2025-12-20T16:47:36.556447+00:00", "meta": {"OBJECT_NAME": "COSMOS 2407", "OBJECT_ID": "2004-028A", "EPOCH": "2025-12-20T07:46:17.442336", "MEAN_MOTION": 13.76314535, "ECCENTRICITY": 0.0039985, "INCLINATION": 82.9598, "RA_OF_ASC_NODE": 207.2775, "ARG_OF_PERICENTER": 34.1719, "MEAN_ANOMALY": 140.2138, "EPHEMERIS_TYPE": 0, "CLASSIFICATION_TYPE": "U", "NORAD_CAT_ID": 28380, "ELEMENT_SET_NO": 999, "REV_AT_EPOCH": 7527, "BSTAR": 5.8434e-05, "MEAN_MOTION_DOT": 7.3e-07, "MEAN_MOTION_DDOT": 0}, "tle": {"line1": "1 28380U 04028A   25354.32381299  .00000073  00000+0  58434-4 0  9998", "line2": "2 28380  82.9598 207.2775 0039985  34.1719 140.2138 13.76314535 75271"}}, "geometry": {"type": "Point", "coordinates": [37.22460550159865, -55.1584430767577]}}, {"type": "Feature", "properties": {"norad_id": 28521, "name": "COSMOS 2414", "group": "musson", "lat": 67.89770332030072, "lon": -19.103684001192903, "alt_km": 899.3954838148375, "timestamp": "2025-12-20T16:47:36.556458+00:00", "meta": {"OBJECT_NAME": "COSMOS 2414", "OBJECT_ID": "2005-002A", "EPOCH": "2025-12-20T11:04:18.678720", "MEAN_MOTION": 13.87903921, "ECCENTRICITY": 0.0041272, "INCLINATION": 82.9488, "RA_OF_ASC_NODE": 178.8209, "ARG_OF_PERICENTER": 118.2138, "MEAN_ANOMALY": 242.3203, "EPHEMERIS_TYPE": 0, "CLASSIFICATION_TYPE": "U", "NORAD_CAT_ID": 28521, "ELEMENT_SET_NO": 999, "REV_AT_EPOCH": 5902, "BSTAR": 3.9413e-05, "MEAN_MOTION_DOT": 6.3e-07, "MEAN_MOTION_DDOT": 0}, "tle": {"line1": "1 28521U 05002A   25354.46132730  .00000063  00000+0  39413-4 0  9992", "line2": "2 28521  82.9488 178.8209 0041272 118.2138 242.3203 13.87903921 59029"}}, "geometry": {"type": "Point", "coordinates": [-19.103684001192903, 67.89770332030072]}}, {"type": "Feature", "properties": {"norad_id": 32052, "name": "COSMOS 2429", "group": "musson", "lat": -59.04619787846656, "lon": 169.29452508420349, "alt_km": 1008.8558879772345, "timestamp": "2025-12-20T16:47:36.556494+00:00", "meta": {"OBJECT_NAME": "COSMOS 2429", "OBJECT_ID": "2007-038A", "EPOCH": "2025-12-20T10:23:29.942016", "MEAN_MOTION": 13.75150171, "ECCENTRICITY": 0.0038802, "INCLINATION": 82.9806, "RA_OF_ASC_NODE": 337.637, "ARG_OF_PERICENTER": 16.7559, "MEAN_ANOMALY": 343.4869, "EPHEMERIS_TYPE": 0, "CLASSIFICATION_TYPE": "U", "NORAD_CAT_ID": 32052, "ELEMENT_SET_NO": 999, "REV_AT_EPOCH": 91708, "BSTAR": 3.8484e-05, "MEAN_MOTION_DOT": 5.2e-07, "MEAN_MOTION_DDOT": 0}, "tle": {"line1": "1 32052U 07038A   25354.43298544  .00000052  00000+0  38484-4 0  9995", "line2": "2 32052  82.9806 337.6370 0038802  16.7559 343.4869 13.75150171917083"}}, "geometry": {"type": "Point", "coordinates": [169.29452508420349, -59.04619787846656]}}, {"type": "Feature", "properties": {"norad_id": 35635, "name": "COSMOS 2454", "group": "musson", "lat": -38.98007729093771, "lon": -11.646811521778165, "alt_km": 949.7066772170165, "timestamp": "2025-12-20T16:47:36.556518+00:00", "meta": {"OBJECT_NAME": "COSMOS 2454", "OBJECT_ID": "2009-039A", "EPOCH": "2025-12-20T10:41:52.495008", "MEAN_MOTION": 13.89929566, "ECCENTRICITY": 0.0020223, "INCLINATION": 82.9556, "RA_OF_ASC_NODE": 162.8033, "ARG_OF_PERICENTER": 53.1065, "MEAN_ANOMALY": 335.9434, "EPHEMERIS_TYPE": 0, "CLASSIFICATION_TYPE": "U", "NORAD_CAT_ID": 35635, "ELEMENT_SET_NO": 999, "REV_AT_EPOCH": 83257, "BSTAR": 3.2612e-05, "MEAN_MOTION_DOT": 5.6e-07, "MEAN_MOTION_DDOT": 0}, "tle": {"line1": "1 35635U 09039A   25354.44574647  .00000056  00000+0  32612-4 0  9991", "line2": "2 35635  82.9556 162.8033 0020223  53.1065 335.9434 13.89929566832575"}}, "geometry": {"type": "Point", "coordinates": [-11.646811521778165, -38.98007729093771]}}, {"type": "Feature", "properties": {"norad_id": 36519, "name": "COSMOS 2463", "group": "musson", "lat": 80.60892397638872, "lon": 152.5245185265542, "alt_km": 1011.400977560791, "timestamp": "2025-12-20T16:47:36.556530+00:00", "meta": {"OBJECT_NAME": "COSMOS 2463", "OBJECT_ID": "2010-017A", "EPOCH": "2025-12-20T07:37:33.206016", "MEAN_MOTION": 13.71649774, "ECCENTRICITY": 0.0034739, "INCLINATION": 82.9605, "RA_OF_ASC_NODE": 21.1436, "ARG_OF_PERICENTER": 266.2291, "MEAN_ANOMALY": 104.9131, "EPHEMERIS_TYPE": 0, "CLASSIFICATION_TYPE": "U", "NORAD_CAT_ID": 36519, "ELEMENT_SET_NO": 999, "REV_AT_EPOCH": 78341, "BSTAR": 4.6253e-05, "MEAN_MOTION_DOT": 5.7e-07, "MEAN_MOTION_DDOT": 0}, "tle": {"line1": "1 36519U 10017A   25354.31774544  .00000057  00000+0  46253-4 0  9992", "line2": "2 36519  82.9605  21.1436 0034739 266.2291 104.9131 13.71649774783418"}}, "geometry": {"type": "Point", "coordinates": [152.5245185265542, 80.60892397638872]}}]}